ONEWEB-0694             
1 56722U 23068N   23244.84406208  .00010733  00000+0  14758-2 0  9998
2 56722  86.7172  97.6367 0013328 213.6489 146.3887 14.78170502 16259
ONEWEB-0696             
1 56723U 23068P   23244.83334491  .00000015  00000+0  00000+0 0  9996
2 56723  87.5044 102.2406 0009411 243.8493 317.3696 13.70719065 15905
ONEWEB-0703             
1 56724U 23068Q   23244.83334491  .00000015  00000+0  00000+0 0  9997
2 56724  87.6190 102.7033 0009044 241.8126 144.7259 13.59068848 15879
ONEWEB-0721             
1 56725U 23068R   23244.85591499  .00007356  00000+0  89966-3 0  9990
2 56725  86.6718  96.8889 0009416 206.6216 153.4525 14.83091655 16299
